{
  "norad_id": 68586,
  "name": "KUIPER-00263",
  "history": [
    {
      "epoch": "2026-04-09T11:59:01.134816Z",
      "apogee_km": 451.9936622917121,
      "perigee_km": 449.1693043270152,
      "latitude_deg": -3.027428005773797e-05,
      "longitude_deg": 131.55341355815472,
      "height_km": 450.69257209263884,
      "semi_major_axis_km": 6828.718483309363,
      "eccentricity": 0.0002068,
      "inclination_deg": 51.8756,
      "raan_deg": 149.0548,
      "arg_perigee_deg": 62.5917,
      "mean_anomaly_deg": 297.528,
      "mean_motion_rev_day": 15.38487416
    },
    {
      "epoch": "2026-04-09T11:59:01.135680Z",
      "apogee_km": 451.9935257173429,
      "perigee_km": 449.1694409013853,
      "latitude_deg": -2.8668533478554627e-05,
      "longitude_deg": 131.5534112014817,
      "height_km": 450.69263496019255,
      "semi_major_axis_km": 6828.718483309363,
      "eccentricity": 0.00020678,
      "inclination_deg": 51.8756,
      "raan_deg": 149.0548,
      "arg_perigee_deg": 62.5917,
      "mean_anomaly_deg": 297.528,
      "mean_motion_rev_day": 15.38487416
    },
    {
      "epoch": "2026-04-11T20:00:01.000224Z",
      "apogee_km": 452.1816124097868,
      "perigee_km": 449.4650519896377,
      "latitude_deg": -19.599294722514774,
      "longitude_deg": -18.433993528792644,
      "height_km": 456.20663046239304,
      "semi_major_axis_km": 6828.960332199712,
      "eccentricity": 0.0001989,
      "inclination_deg": 51.8764,
      "raan_deg": 137.7512,
      "arg_perigee_deg": 68.9592,
      "mean_anomaly_deg": 266.0595,
      "mean_motion_rev_day": 15.38405688
    }
  ]
}